GLOBALSTAR M035         
1 25851U 99037A   24194.50711623 -.00000076  00000+0 -45486-3 0  9998
2 25851  51.9955  92.4782 0013173 149.0951  22.0449 11.04531369 58729
GLOBALSTAR M032         
1 25852U 99037B   24194.54464938  .00000017  00000+0  26909-2 0  9998
2 25852  51.9966 301.0294 0009540 314.1734  45.8281 11.19059500 96767
GLOBALSTAR M051         
1 25853U 99037C   24194.59214650 -.00000094  00000+0 -53284-3 0  9992
2 25853  51.9778 140.1171 0001726 336.8595  23.2137 11.42199786 93583
GLOBALSTAR M030         
1 25854U 99037D   24194.78048049 -.00000027  00000+0  10234-2 0  9993
2 25854  51.9904 327.3531 0004250 153.3530 206.7506 11.55097872110923
GLOBALSTAR M048         
1 25872U 99041A   24194.38398094 -.00000068  00000+0  43022-4 0  9990
2 25872  51.9383  62.5159 0013294 319.9550 211.0376 11.33847195 86437
GLOBALSTAR M026         
1 25873U 99041B   24194.51675927 -.00000054  00000+0  37693-3 0  9990
2 25873  51.9968 213.9908 0001173  32.7307 138.6843 11.06833816110878
GLOBALSTAR M043         
1 25874U 99041C   24194.64467078 -.00000046  00000+0  67176-3 0  9991
2 25874  51.9373 156.0075 0012286  89.6951  81.3680 11.25680355 84630
GLOBALSTAR M028         
1 25875U 99041D   24194.79229543 -.00000122  00000+0 -13779-3 0  9997
2 25875  51.9620 125.0625 0063927  54.2883 306.3904 12.50559102147748
